CCSDS_OMM_VERS,COMMENT,CREATION_DATE,ORIGINATOR,OBJECT_NAME,OBJECT_ID,CENTER_NAME,REF_FRAME,TIME_SYSTEM,MEAN_ELEMENT_THEORY,EPOCH,MEAN_MOTION,ECCENTRICITY,INCLINATION,RA_OF_ASC_NODE,ARG_OF_PERICENTER,MEAN_ANOMALY,EPHEMERIS_TYPE,CLASSIFICATION_TYPE,NORAD_CAT_ID,ELEMENT_SET_NO,REV_AT_EPOCH,BSTAR,MEAN_MOTION_DOT,MEAN_MOTION_DDOT,SEMIMAJOR_AXIS,PERIOD,APOAPSIS,PERIAPSIS,OBJECT_TYPE,RCS_SIZE,COUNTRY_CODE,LAUNCH_DATE,SITE,DECAY_DATE,FILE,GP_ID,TLE_LINE0,TLE_LINE1,TLE_LINE2
"3.0","GENERATED VIA SPACE-TRACK.ORG API","2026-06-23T03:40:42","18 SPCS","ATLAS 5 CENTAUR DEB","2018-079HL","EARTH","TEME","UTC","SGP4","2025-05-09T23:31:05.755008","1.80043268","0.47450951","13.2508","67.4437","244.8245","59.3754","0","U","55858","999","2338","0.00000000000000","-0.00000076","0.0000000000000","28541.968","799.808","35707.268","8620.398","DEBRIS","MEDIUM","US","2018-10-17","AFETR","","5257616","330967872","0 ATLAS 5 CENTAUR DEB","1 55858U 18079HL  25129.97992772 -.00000076  00000-0  00000-0 0  9991","2 55858  13.2508  67.4437 4745095 244.8245  59.3754  1.80043268 23387"
"3.0","GENERATED VIA SPACE-TRACK.ORG API","2025-05-10T01:36:49","18 SPCS","COSMOS 482 DESCENT CRAFT","1972-023E","EARTH","TEME","UTC","SGP4","2025-05-10T00:35:56.062752","16.48653575","0.00353900","51.9455","241.9030","103.6551","63.6433","0","U","6073","999","75131","0.00006584900000","0.08088373","0.0000125420000","6521.021","87.344","165.963","119.808","PAYLOAD","MEDIUM","CIS","1972-03-31","TTMTR","2025-05-10","4723966","287153777","0 COSMOS 482 DESCENT CRAFT","1  6073U 72023E   25130.02495443  .08088373  12542-4  65849-4 0  9993","2  6073  51.9455 241.9030 0035390 103.6551  63.6433 16.48653575751319"
"3.0","GENERATED VIA SPACE-TRACK.ORG API","2025-05-10T02:16:18","18 SPCS","STARLINK-2323","2021-021J","EARTH","TEME","UTC","SGP4","2025-05-10T01:33:32.803200","16.46662574","0.00049250","53.0183","106.1054","253.4869","183.5919","0","U","47868","999","23119","0.00046857000000","0.22451325","0.0000125250000","6526.276","87.450","151.355","144.927","PAYLOAD","LARGE","US","2021-03-14","AFETR","2025-05-10","4723971","287153781","0 STARLINK-2323","1 47868U 21021J   25130.06496300  .22451325  12525-4  46857-3 0  9994","2 47868  53.0183 106.1054 0004925 253.4869 183.5919 16.46662574231198"
"3.0","GENERATED VIA SPACE-TRACK.ORG API","2025-05-10T17:27:15","18 SPCS","AYRIS-2","2023-084BG","EARTH","TEME","UTC","SGP4","2025-05-10T02:50:13.869312","16.33216228","0.00162740","97.5297","270.2008","268.8175","91.1256","0","U","56986","999","10677","0.00120470000000","0.07448875","0.0000025916000","6562.048","88.170","194.592","173.234","PAYLOAD","MEDIUM","ISRA","2023-06-12","AFWTR","2025-05-13","4724659","287224256","0 AYRIS-2","1 56986U 23084BG  25130.11821608  .07448875  25916-5  12047-2 0  9996","2 56986  97.5297 270.2008 0016274 268.8175  91.1256 16.33216228106770"
"3.0","GENERATED VIA SPACE-TRACK.ORG API","2025-05-10T03:36:30","18 SPCS","STARLINK-1616","2020-057AH","EARTH","TEME","UTC","SGP4","2025-05-10T03:10:37.077312","16.46975005","0.00050250","53.0108","165.0888","274.3650","196.2627","0","U","46148","999","26196","0.00048006000000","0.24528545","0.0000125640000","6525.451","87.433","150.595","144.037","PAYLOAD","LARGE","US","2020-08-18","AFETR","2025-05-10","4723977","287183474","0 STARLINK-1616","1 46148U 20057AH  25130.13237358  .24528545  12564-4  48006-3 0  9998","2 46148  53.0108 165.0888 0005025 274.3650 196.2627 16.46975005261967"
"3.0","GENERATED VIA SPACE-TRACK.ORG API","2025-05-10T17:27:15","18 SPCS","OBJECT H","2021-091H","EARTH","TEME","UTC","SGP4","2025-05-10T07:40:39.596736","16.42096743","0.00095800","97.3715","346.7302","256.2888","103.7346","0","U","49322","999","19977","0.00044549000000","0.09066777","0.0000025582000","6538.368","87.693","166.497","153.969","UNKNOWN","MEDIUM","PRC","2021-10-14","TSC","2025-05-13","4724659","287219587","0 OBJECT H","1 49322U 21091H   25130.31990274  .09066777  25582-5  44549-3 0  9997","2 49322  97.3715 346.7302 0009580 256.2888 103.7346 16.42096743199779"
"3.0","GENERATED VIA SPACE-TRACK.ORG API","2025-05-11T02:40:14","18 SPCS","FLOCK 4Y 29","2023-001X","EARTH","TEME","UTC","SGP4","2025-05-10T18:10:55.271424","16.38475525","0.00144390","97.3398","206.6689","268.3953","91.5692","0","U","55030","999","13148","0.00108170000000","0.11663589","0.0000025031000","6547.998","87.887","179.318","160.408","PAYLOAD","MEDIUM","US","2023-01-03","AFETR","2025-05-13","4724992","287260056","0 FLOCK 4Y 29","1 55030U 23001X   25130.75758416  .11663589  25031-5  10817-2 0  9997","2 55030  97.3398 206.6689 0014439 268.3953  91.5692 16.38475525131483"
"3.0","GENERATED VIA SPACE-TRACK.ORG API","2025-05-12T16:56:17","18 SPCS","XR-1","2021-006CY","EARTH","TEME","UTC","SGP4","2025-05-10T18:39:19.886400","16.46799156","0.00165730","97.2518","196.8209","248.3409","112.2185","0","U","47507","999","23901","0.00053776000000","0.32204030","0.0000024698000","6525.915","87.442","158.595","136.965","PAYLOAD","MEDIUM","US","2021-01-24","AFETR","2025-05-13","4726612","287365348","0 XR-1","1 47507U 21006CY  25130.77731350  .32204030  24698-5  53776-3 0  9995","2 47507  97.2518 196.8209 0016573 248.3409 112.2185 16.46799156239013"
"3.0","GENERATED VIA SPACE-TRACK.ORG API","2025-05-11T02:40:14","18 SPCS","OBJECT J","2024-039J","EARTH","TEME","UTC","SGP4","2025-05-10T19:09:04.027392","16.46804688","0.00093790","97.3845","107.7803","225.9562","134.0969","0","U","59059","999","6734","0.00026243000000","0.13625084","0.0000026615000","6525.900","87.442","153.886","141.645","UNKNOWN","SMALL","TBD","2024-02-29","VOSTO","2025-05-13","4724992","287262706","0 OBJECT J","1 59059U 24039J   25130.79796328  .13625084  26615-5  26243-3 0  9992","2 59059  97.3845 107.7803 0009379 225.9562 134.0969 16.46804688 67344"
"3.0","GENERATED VIA SPACE-TRACK.ORG API","2026-06-23T03:40:42","18 SPCS","CZ-3C DEB","2012-008AR","EARTH","TEME","UTC","SGP4","2025-05-10T21:40:57.825120","2.24584998","0.69288195","23.1944","359.2535","253.8559","24.8256","0","U","42481","999","8020","0.00000000000000","-0.00000254","0.0000000000000","24630.960","641.183","35319.173","1186.478","DEBRIS","MEDIUM","PRC","2012-02-24","XSC","","5257616","330961176","0 CZ-3C DEB","1 42481U 12008AR  25130.90344705 -.00000254  00000-0  00000-0 0  9995","2 42481  23.1944 359.2535 6928820 253.8559  24.8256  2.24584998 80206"
"3.0","GENERATED VIA SPACE-TRACK.ORG API","2025-05-14T22:46:18","18 SPCS","CZ-6A DEB","2022-151AHR","EARTH","TEME","UTC","SGP4","2025-05-11T03:18:45.278784","15.62131623","0.00085570","98.6195","190.7588","276.5915","83.4365","0","U","57574","999","12040","0.01247400000000","0.01217426","0.0000000000000","6759.638","92.182","387.287","375.719","DEBRIS","SMALL","PRC","2022-11-11","TSC","2025-05-20","4728869","287596462","0 CZ-6A DEB","1 57574U 22151AHR 25131.13802406  .01217426  00000-0  12474-1 0  9997","2 57574  98.6195 190.7588 0008557 276.5915  83.4365 15.62131623120402"
"3.0","GENERATED VIA SPACE-TRACK.ORG API","2025-05-11T22:21:49","18 SPCS","COSMOS 2251 DEB","1993-036CB","EARTH","TEME","UTC","SGP4","2025-05-11T06:11:57.429312","16.28927828","0.00186690","74.0121","74.3394","214.9517","145.0513","0","U","33834","999","87103","0.00352860000000","0.14841113","0.0000017946000","6573.560","88.402","207.697","183.153","DEBRIS","SMALL","CIS","1993-06-16","PKMTR","2025-05-17","4725669","287294965","0 COSMOS 2251 DEB","1 33834U 93036CB  25131.25830358  .14841113  17946-5  35286-2 0  9999","2 33834  74.0121  74.3394 0018669 214.9517 145.0513 16.28927828871038"
"3.0","GENERATED VIA SPACE-TRACK.ORG API","2025-05-11T21:46:29","18 SPCS","STARLINK-2271","2021-024AH","EARTH","TEME","UTC","SGP4","2025-05-11T20:00:31.572864","16.44102317","0.00058730","53.0265","119.5836","263.3434","164.7094","0","U","48008","999","23038","0.00066658000000","0.18890074","0.0000124650000","6533.049","87.586","158.751","151.078","PAYLOAD","LARGE","US","2021-03-24","AFETR","2025-05-12","4725659","287283215","0 STARLINK-2271","1 48008U 21024AH  25131.83369876  .18890074  12465-4  66658-3 0  9994","2 48008  53.0265 119.5836 0005873 263.3434 164.7094 16.44102317230380"
"3.0","GENERATED VIA SPACE-TRACK.ORG API","2025-05-12T19:41:36","18 SPCS","OBJECT C","2022-087C","EARTH","TEME","UTC","SGP4","2025-05-12T01:21:21.525696","16.49421312","0.00137610","97.2713","224.8906","258.1053","101.8708","0","U","53301","999","15684","0.00015036000000","0.12978490","0.0000025260000","6518.997","87.303","149.833","131.891","UNKNOWN","MEDIUM","PRC","2022-07-27","JSC","2025-05-17","4726624","287386874","0 OBJECT C","1 53301U 22087C   25132.05649914  .12978490  25260-5  15036-3 0  9990","2 53301  97.2713 224.8906 0013761 258.1053 101.8708 16.49421312156848"
"3.0","GENERATED VIA SPACE-TRACK.ORG API","2026-06-23T03:40:42","18 SPCS","DELTA 1 DEB","1968-055K","EARTH","TEME","UTC","SGP4","2025-05-12T02:32:30.143616","10.48936890","0.20338419","120.5260","262.3819","214.3072","130.8226","0","U","27624","999","18382","0.00791214950000","0.00005918","0.0000000000000","8815.270","137.282","4230.021","644.248","DEBRIS","SMALL","US","1968-07-04","AFWTR","","5257616","330953391","0 DELTA 1 DEB","1 27624U 68055K   25132.10590444  .00005918  00000-0  79121-2 0  9990","2 27624 120.5260 262.3819 2033842 214.3072 130.8226 10.48936890183823"
"3.0","GENERATED VIA SPACE-TRACK.ORG API","2025-05-12T19:41:36","18 SPCS","OBJECT G","2024-039G","EARTH","TEME","UTC","SGP4","2025-05-12T05:25:32.061792","16.38741284","0.00092030","97.4006","109.1318","217.1858","142.8804","0","U","59057","999","6755","0.00081673000000","0.08814262","0.0000025991000","6547.290","87.872","175.180","163.130","UNKNOWN","SMALL","TBD","2024-02-29","VOSTO","2025-05-17","4726624","287391181","0 OBJECT G","1 59057U 24039G   25132.22606553  .08814262  25991-5  81673-3 0  9996","2 59057  97.4006 109.1318 0009203 217.1858 142.8804 16.38741284 67557"
